{
  "type": "FeatureCollection",
  "features": [
    {
      "type": "Feature",
      "properties": {
        "norad_id": 43719,
        "name": "HYSIS",
        "group": "resource",
        "lat": 23.331947599782588,
        "lon": 43.921971954636376,
        "alt_km": 632.321922186271,
        "timestamp": "2025-12-10T09:57:44.362053+00:00",
        "meta_object_name": "HYSIS",
        "meta_object_id": "2018-096A",
        "meta_epoch": "2025-12-10T04:59:01.454208",
        "meta_mean_motion": 14.78633502,
        "meta_eccentricity": 0.0001475,
        "meta_inclination": 98.0096,
        "meta_ra_of_asc_node": 47.1975,
        "meta_arg_of_pericenter": 56.2896,
        "meta_mean_anomaly": 303.8455,
        "meta_ephemeris_type": 0,
        "meta_classification_type": "U",
        "meta_norad_cat_id": 43719,
        "meta_element_set_no": 999,
        "meta_rev_at_epoch": 37949,
        "meta_bstar": 0.00026742,
        "meta_mean_motion_dot": 1.906e-05,
        "meta_mean_motion_ddot": 0,
        "tle_line1": "1 43719U 18096A   25344.20765572  .00001906  00000+0  26742-3 0  9999",
        "tle_line2": "2 43719  98.0096  47.1975 0001475  56.2896 303.8455 14.78633502379493"
      },
      "geometry": {
        "type": "Point",
        "coordinates": [
          43.921971954636376,
          23.331947599782588
        ]
      }
    },
    {
      "type": "Feature",
      "properties": {
        "norad_id": 43783,
        "name": "KAZSTSAT",
        "group": "resource",
        "lat": 81.96316705513229,
        "lon": -48.34409831575776,
        "alt_km": 562.687733440649,
        "timestamp": "2025-12-10T09:57:44.362063+00:00",
        "meta_object_name": "KAZSTSAT",
        "meta_object_id": "2018-099AB",
        "meta_epoch": "2025-12-10T01:34:02.667360",
        "meta_mean_motion": 14.99340105,
        "meta_eccentricity": 0.0006029,
        "meta_inclination": 97.4557,
        "meta_ra_of_asc_node": 19.3651,
        "meta_arg_of_pericenter": 341.3852,
        "meta_mean_anomaly": 18.715,
        "meta_ephemeris_type": 0,
        "meta_classification_type": "U",
        "meta_norad_cat_id": 43783,
        "meta_element_set_no": 999,
        "meta_rev_at_epoch": 38296,
        "meta_bstar": 0.00018808,
        "meta_mean_motion_dot": 2.244e-05,
        "meta_mean_motion_ddot": 0,
        "tle_line1": "1 43783U 18099AB  25344.06530865  .00002244  00000+0  18808-3 0  9992",
        "tle_line2": "2 43783  97.4557  19.3651 0006029 341.3852  18.7150 14.99340105382968"
      },
      "geometry": {
        "type": "Point",
        "coordinates": [
          -48.34409831575776,
          81.96316705513229
        ]
      }
    },
    {
      "type": "Feature",
      "properties": {
        "norad_id": 43831,
        "name": "SAUDISAT 5A",
        "group": "resource",
        "lat": -77.65034398094025,
        "lon": 80.69143342016461,
        "alt_km": 504.0841551830099,
        "timestamp": "2025-12-10T09:57:44.362076+00:00",
        "meta_object_name": "SAUDISAT 5A",
        "meta_object_id": "2018-102A",
        "meta_epoch": "2025-12-10T04:00:59.560992",
        "meta_mean_motion": 15.25605008,
        "meta_eccentricity": 0.0011819,
        "meta_inclination": 97.3352,
        "meta_ra_of_asc_node": 44.4077,
        "meta_arg_of_pericenter": 84.0748,
        "meta_mean_anomaly": 276.1837,
        "meta_ephemeris_type": 0,
        "meta_classification_type": "U",
        "meta_norad_cat_id": 43831,
        "meta_element_set_no": 999,
        "meta_rev_at_epoch": 38683,
        "meta_bstar": 0.00034221,
        "meta_mean_motion_dot": 8.643e-05,
        "meta_mean_motion_ddot": 0,
        "tle_line1": "1 43831U 18102A   25344.16735603  .00008643  00000+0  34221-3 0  9995",
        "tle_line2": "2 43831  97.3352  44.4077 0011819  84.0748 276.1837 15.25605008386831"
      },
      "geometry": {
        "type": "Point",
        "coordinates": [
          80.69143342016461,
          -77.65034398094025
        ]
      }
    },
    {
      "type": "Feature",
      "properties": {
        "norad_id": 43833,
        "name": "SAUDISAT 5B",
        "group": "resource",
        "lat": -30.64495104300122,
        "lon": 51.76782779248539,
        "alt_km": 497.7949441387591,
        "timestamp": "2025-12-10T09:57:44.362087+00:00",
        "meta_object_name": "SAUDISAT 5B",
        "meta_object_id": "2018-102C",
        "meta_epoch": "2025-12-10T05:22:34.546080",
        "meta_mean_motion": 15.2595925,
        "meta_eccentricity": 0.0012516,
        "meta_inclination": 97.3446,
        "meta_ra_of_asc_node": 47.1974,
        "meta_arg_of_pericenter": 86.2756,
        "meta_mean_anomaly": 273.9914,
        "meta_ephemeris_type": 0,
        "meta_classification_type": "U",
        "meta_norad_cat_id": 43833,
        "meta_element_set_no": 999,
        "meta_rev_at_epoch": 38695,
        "meta_bstar": 0.00031938,
        "meta_mean_motion_dot": 8.149e-05,
        "meta_mean_motion_ddot": 0,
        "tle_line1": "1 43833U 18102C   25344.22401095  .00008149  00000+0  31938-3 0  9992",
        "tle_line2": "2 43833  97.3446  47.1974 0012516  86.2756 273.9914 15.25959250386956"
      },
      "geometry": {
        "type": "Point",
        "coordinates": [
          51.76782779248539,
          -30.64495104300122
        ]
      }
    },
    {
      "type": "Feature",
      "properties": {
        "norad_id": 44622,
        "name": "GAOFEN-10R",
        "group": "resource",
        "lat": -81.2984879818804,
        "lon": -0.8515244146447623,
        "alt_km": 631.8739762220066,
        "timestamp": "2025-12-10T09:57:44.362097+00:00",
        "meta_object_name": "GAOFEN-10R",
        "meta_object_id": "2019-066A",
        "meta_epoch": "2025-12-10T03:52:27.747264",
        "meta_mean_motion": 14.82777783,
        "meta_eccentricity": 0.0007993,
        "meta_inclination": 98.0276,
        "meta_ra_of_asc_node": 291.6576,
        "meta_arg_of_pericenter": 49.2396,
        "meta_mean_anomaly": 310.9509,
        "meta_ephemeris_type": 0,
        "meta_classification_type": "U",
        "meta_norad_cat_id": 44622,
        "meta_element_set_no": 999,
        "meta_rev_at_epoch": 33436,
        "meta_bstar": 0.00032252,
        "meta_mean_motion_dot": 2.554e-05,
        "meta_mean_motion_ddot": 0,
        "tle_line1": "1 44622U 19066A   25344.16143226  .00002554  00000+0  32252-3 0  9995",
        "tle_line2": "2 44622  98.0276 291.6576 0007993  49.2396 310.9509 14.82777783334369"
      },
      "geometry": {
        "type": "Point",
        "coordinates": [
          -0.8515244146447623,
          -81.2984879818804
        ]
      }
    },
    {
      "type": "Feature",
      "properties": {
        "norad_id": 44804,
        "name": "CARTOSAT-3",
        "group": "resource",
        "lat": 47.17179232785577,
        "lon": -127.84785676311489,
        "alt_km": 496.19463255601477,
        "timestamp": "2025-12-10T09:57:44.362108+00:00",
        "meta_object_name": "CARTOSAT-3",
        "meta_object_id": "2019-081A",
        "meta_epoch": "2025-12-10T04:38:29.455872",
        "meta_mean_motion": 15.19334089,
        "meta_eccentricity": 0.0013907,
        "meta_inclination": 97.4578,
        "meta_ra_of_asc_node": 43.8089,
        "meta_arg_of_pericenter": 94.8152,
        "meta_mean_anomaly": 265.4671,
        "meta_ephemeris_type": 0,
        "meta_classification_type": "U",
        "meta_norad_cat_id": 44804,
        "meta_element_set_no": 999,
        "meta_rev_at_epoch": 33477,
        "meta_bstar": 0.00024385,
        "meta_mean_motion_dot": 5.096e-05,
        "meta_mean_motion_ddot": 0,
        "tle_line1": "1 44804U 19081A   25344.19339648  .00005096  00000+0  24385-3 0  9994",
        "tle_line2": "2 44804  97.4578  43.8089 0013907  94.8152 265.4671 15.19334089334771"
      },
      "geometry": {
        "type": "Point",
        "coordinates": [
          -127.84785676311489,
          47.17179232785577
        ]
      }
    },
    {
      "type": "Feature",
      "properties": {
        "norad_id": 44819,
        "name": "GAOFEN-12 01",
        "group": "resource",
        "lat": -18.235845646940604,
        "lon": 168.1642524878927,
        "alt_km": 631.7934305678345,
        "timestamp": "2025-12-10T09:57:44.362118+00:00",
        "meta_object_name": "GAOFEN-12 01",
        "meta_object_id": "2019-082A",
        "meta_epoch": "2025-12-10T04:12:13.321152",
        "meta_mean_motion": 14.80652395,
        "meta_eccentricity": 0.0001211,
        "meta_inclination": 97.8127,
        "meta_ra_of_asc_node": 350.5234,
        "meta_arg_of_pericenter": 250.419,
        "meta_mean_anomaly": 109.6892,
        "meta_ephemeris_type": 0,
        "meta_classification_type": "U",
        "meta_norad_cat_id": 44819,
        "meta_element_set_no": 999,
        "meta_rev_at_epoch": 32612,
        "meta_bstar": 0.00010971,
        "meta_mean_motion_dot": 7.92e-06,
        "meta_mean_motion_ddot": 0,
        "tle_line1": "1 44819U 19082A   25344.17515418  .00000792  00000+0  10971-3 0  9994",
        "tle_line2": "2 44819  97.8127 350.5234 0001211 250.4190 109.6892 14.80652395326122"
      },
      "geometry": {
        "type": "Point",
        "coordinates": [
          168.1642524878927,
          -18.235845646940604
        ]
      }
    }
  ]
}